{
  "type": "FeatureCollection",
  "features": [
    {
      "type": "Feature",
      "properties": {
        "norad_id": 30199,
        "name": "FENGYUN 1C DEB",
        "group": "fengyun-1c-debris",
        "lat": 68.67321415891703,
        "lon": -139.93466929879787,
        "alt_km": 811.9323145391909,
        "timestamp": "2025-12-20T07:33:51.087639+00:00",
        "meta_object_name": "FENGYUN 1C DEB",
        "meta_object_id": "1999-025VG",
        "meta_epoch": "2025-12-19T13:27:05.764032",
        "meta_mean_motion": 14.38551898,
        "meta_eccentricity": 0.0077675,
        "meta_inclination": 98.3844,
        "meta_ra_of_asc_node": 17.1334,
        "meta_arg_of_pericenter": 287.9572,
        "meta_mean_anomaly": 235.6193,
        "meta_ephemeris_type": 0,
        "meta_classification_type": "U",
        "meta_norad_cat_id": 30199,
        "meta_element_set_no": 999,
        "meta_rev_at_epoch": 98508,
        "meta_bstar": 0.00068139,
        "meta_mean_motion_dot": 2.114e-05,
        "meta_mean_motion_ddot": 0,
        "tle_line1": "1 30199U 99025VG  25353.56048338  .00002114  00000+0  68139-3 0  9999",
        "tle_line2": "2 30199  98.3844  17.1334 0077675 287.9572 235.6193 14.38551898985082"
      },
      "geometry": {
        "type": "Point",
        "coordinates": [
          -139.93466929879787,
          68.67321415891703
        ]
      }
    },
    {
      "type": "Feature",
      "properties": {
        "norad_id": 30200,
        "name": "FENGYUN 1C DEB",
        "group": "fengyun-1c-debris",
        "lat": -1.3467889129038675,
        "lon": -170.45733597757,
        "alt_km": 798.9257518744553,
        "timestamp": "2025-12-20T07:33:51.087649+00:00",
        "meta_object_name": "FENGYUN 1C DEB",
        "meta_object_id": "1999-025VH",
        "meta_epoch": "2025-12-19T19:45:07.146432",
        "meta_mean_motion": 14.22281392,
        "meta_eccentricity": 0.0147573,
        "meta_inclination": 99.1126,
        "meta_ra_of_asc_node": 188.8178,
        "meta_arg_of_pericenter": 79.1441,
        "meta_mean_anomaly": 282.6304,
        "meta_ephemeris_type": 0,
        "meta_classification_type": "U",
        "meta_norad_cat_id": 30200,
        "meta_element_set_no": 999,
        "meta_rev_at_epoch": 98083,
        "meta_bstar": 0.00010530838,
        "meta_mean_motion_dot": 2.15e-06,
        "meta_mean_motion_ddot": 0,
        "tle_line1": "1 30200U 99025VH  25353.82299938  .00000215  00000+0  10531-3 0  9998",
        "tle_line2": "2 30200  99.1126 188.8178 0147573  79.1441 282.6304 14.22281392980836"
      },
      "geometry": {
        "type": "Point",
        "coordinates": [
          -170.45733597757,
          -1.3467889129038675
        ]
      }
    },
    {
      "type": "Feature",
      "properties": {
        "norad_id": 30201,
        "name": "FENGYUN 1C DEB",
        "group": "fengyun-1c-debris",
        "lat": -68.58318713891725,
        "lon": 154.02330314534828,
        "alt_km": 801.9474069693524,
        "timestamp": "2025-12-20T07:33:51.087659+00:00",
        "meta_object_name": "FENGYUN 1C DEB",
        "meta_object_id": "1999-025VJ",
        "meta_epoch": "2025-12-19T09:57:21.739680",
        "meta_mean_motion": 14.22954338,
        "meta_eccentricity": 0.0028698,
        "meta_inclination": 99.4013,
        "meta_ra_of_asc_node": 128.077,
        "meta_arg_of_pericenter": 293.373,
        "meta_mean_anomaly": 66.4428,
        "meta_ephemeris_type": 0,
        "meta_classification_type": "U",
        "meta_norad_cat_id": 30201,
        "meta_element_set_no": 999,
        "meta_rev_at_epoch": 97922,
        "meta_bstar": 0.00032881,
        "meta_mean_motion_dot": 6.93e-06,
        "meta_mean_motion_ddot": 0,
        "tle_line1": "1 30201U 99025VJ  25353.41483495  .00000693  00000+0  32881-3 0  9999",
        "tle_line2": "2 30201  99.4013 128.0770 0028698 293.3730  66.4428 14.22954338979229"
      },
      "geometry": {
        "type": "Point",
        "coordinates": [
          154.02330314534828,
          -68.58318713891725
        ]
      }
    },
    {
      "type": "Feature",
      "properties": {
        "norad_id": 30202,
        "name": "FENGYUN 1C DEB",
        "group": "fengyun-1c-debris",
        "lat": -9.219207132813462,
        "lon": 93.24085759654969,
        "alt_km": 702.1650409366812,
        "timestamp": "2025-12-20T07:33:51.087669+00:00",
        "meta_object_name": "FENGYUN 1C DEB",
        "meta_object_id": "1999-025VK",
        "meta_epoch": "2025-12-19T05:09:14.063040",
        "meta_mean_motion": 14.52472211,
        "meta_eccentricity": 0.0038413,
        "meta_inclination": 98.6409,
        "meta_ra_of_asc_node": 90.694,
        "meta_arg_of_pericenter": 38.7518,
        "meta_mean_anomaly": 321.642,
        "meta_ephemeris_type": 0,
        "meta_classification_type": "U",
        "meta_norad_cat_id": 30202,
        "meta_element_set_no": 999,
        "meta_rev_at_epoch": 98383,
        "meta_bstar": 0.0014574,
        "meta_mean_motion_dot": 5.959e-05,
        "meta_mean_motion_ddot": 0,
        "tle_line1": "1 30202U 99025VK  25353.21474610  .00005959  00000+0  14574-2 0  9995",
        "tle_line2": "2 30202  98.6409  90.6940 0038413  38.7518 321.6420 14.52472211983832"
      },
      "geometry": {
        "type": "Point",
        "coordinates": [
          93.24085759654969,
          -9.219207132813462
        ]
      }
    },
    {
      "type": "Feature",
      "properties": {
        "norad_id": 30205,
        "name": "FENGYUN 1C DEB",
        "group": "fengyun-1c-debris",
        "lat": 80.97238760590267,
        "lon": 19.698361601084983,
        "alt_km": 896.7388843217304,
        "timestamp": "2025-12-20T07:33:51.087679+00:00",
        "meta_object_name": "FENGYUN 1C DEB",
        "meta_object_id": "1999-025VN",
        "meta_epoch": "2025-12-19T13:55:50.083392",
        "meta_mean_motion": 13.88047166,
        "meta_eccentricity": 0.0121266,
        "meta_inclination": 98.9969,
        "meta_ra_of_asc_node": 104.6689,
        "meta_arg_of_pericenter": 161.3148,
        "meta_mean_anomaly": 219.8575,
        "meta_ephemeris_type": 0,
        "meta_classification_type": "U",
        "meta_norad_cat_id": 30205,
        "meta_element_set_no": 999,
        "meta_rev_at_epoch": 95733,
        "meta_bstar": 0.00023544,
        "meta_mean_motion_dot": 2.56e-06,
        "meta_mean_motion_ddot": 0,
        "tle_line1": "1 30205U 99025VN  25353.58044078  .00000256  00000+0  23544-3 0  9992",
        "tle_line2": "2 30205  98.9969 104.6689 0121266 161.3148 219.8575 13.88047166957336"
      },
      "geometry": {
        "type": "Point",
        "coordinates": [
          19.698361601084983,
          80.97238760590267
        ]
      }
    },
    {
      "type": "Feature",
      "properties": {
        "norad_id": 30206,
        "name": "FENGYUN 1C DEB",
        "group": "fengyun-1c-debris",
        "lat": -61.276058049448636,
        "lon": 158.08043707464688,
        "alt_km": 802.343586359234,
        "timestamp": "2025-12-20T07:33:51.087689+00:00",
        "meta_object_name": "FENGYUN 1C DEB",
        "meta_object_id": "1999-025VP",
        "meta_epoch": "2025-12-19T10:33:38.109024",
        "meta_mean_motion": 14.49180367,
        "meta_eccentricity": 0.014555,
        "meta_inclination": 98.231,
        "meta_ra_of_asc_node": 352.5415,
        "meta_arg_of_pericenter": 15.9081,
        "meta_mean_anomaly": 344.6613,
        "meta_ephemeris_type": 0,
        "meta_classification_type": "U",
        "meta_norad_cat_id": 30206,
        "meta_element_set_no": 999,
        "meta_rev_at_epoch": 99498,
        "meta_bstar": 0.0003634,
        "meta_mean_motion_dot": 1.533e-05,
        "meta_mean_motion_ddot": 0,
        "tle_line1": "1 30206U 99025VP  25353.44002441  .00001533  00000+0  36340-3 0  9993",
        "tle_line2": "2 30206  98.2310 352.5415 0145550  15.9081 344.6613 14.49180367994984"
      },
      "geometry": {
        "type": "Point",
        "coordinates": [
          158.08043707464688,
          -61.276058049448636
        ]
      }
    },
    {
      "type": "Feature",
      "properties": {
        "norad_id": 30207,
        "name": "FENGYUN 1C DEB",
        "group": "fengyun-1c-debris",
        "lat": 73.1467749646092,
        "lon": -45.819990293078234,
        "alt_km": 783.3029543614402,
        "timestamp": "2025-12-20T07:33:51.087699+00:00",
        "meta_object_name": "FENGYUN 1C DEB",
        "meta_object_id": "1999-025VQ",
        "meta_epoch": "2025-12-19T06:46:45.712992",
        "meta_mean_motion": 13.79140601,
        "meta_eccentricity": 0.0260744,
        "meta_inclination": 98.5743,
        "meta_ra_of_asc_node": 103.3742,
        "meta_arg_of_pericenter": 130.7099,
        "meta_mean_anomaly": 250.5178,
        "meta_ephemeris_type": 0,
        "meta_classification_type": "U",
        "meta_norad_cat_id": 30207,
        "meta_element_set_no": 999,
        "meta_rev_at_epoch": 95153,
        "meta_bstar": 0.00015578,
        "meta_mean_motion_dot": 1.69e-06,
        "meta_mean_motion_ddot": 0,
        "tle_line1": "1 30207U 99025VQ  25353.28247353  .00000169  00000+0  15578-3 0  9993",
        "tle_line2": "2 30207  98.5743 103.3742 0260744 130.7099 250.5178 13.79140601951535"
      },
      "geometry": {
        "type": "Point",
        "coordinates": [
          -45.819990293078234,
          73.1467749646092
        ]
      }
    }
  ]
}